STARLINK-30592          
1 58102U 23161F   26068.55874102 -.00001107  00000+0 -25260-4 0  9992
2 58102  53.1603 165.9946 0001124  86.1642 273.9487 15.30182666134401
TEVEL2-2                
1 63219U 25052K   26068.64848259  .00020339  00000+0  69428-3 0  9991
2 63219  97.3987 324.7700 0004693 105.7930 254.3828 15.30343745 54855
